{
  "norad_id": 58252,
  "name": "STARLINK-30883",
  "history": [
    {
      "epoch": "2026-03-28T13:34:40.623744Z",
      "apogee_km": 487.46808935891113,
      "perigee_km": 483.62442673440455,
      "latitude_deg": -2.153861935125239e-06,
      "longitude_deg": 148.76166967261807,
      "height_km": 485.8108272356353,
      "semi_major_axis_km": 6863.683258046657,
      "eccentricity": 0.00028,
      "inclination_deg": 43.0043,
      "raan_deg": 178.4153,
      "arg_perigee_deg": 255.3392,
      "mean_anomaly_deg": 104.7149,
      "mean_motion_rev_day": 15.26746424
    }
  ]
}